start=new Date('2022-05-19T00:00:00.000Z').valueOf();
sats=[{"REV_AT_EPOCH":"12677","GP_ID":"203868933","RA_OF_ASC_NODE":"51.9501","LAUNCH_DATE":"2020-01-29","OBJECT_ID":"2020-006E","EPHEMERIS_TYPE":"0","FILE":"3451871","REF_FRAME":"TEME","MEAN_MOTION_DOT":"0.00001656","EPOCH":"2022-05-18T11:44:55.933728","TLE_LINE1":"1 45048U 20006E   22138.48953627  .00001656  00000-0  13005-3 0  9999","SITE":"AFETR","APOAPSIS":"548.346","PERIAPSIS":"546.041","DECAY_DATE":null,"TLE_LINE2":"2 45048  53.0548  51.9501 0001664  65.4750 294.6413 15.06406548126774","MEAN_ELEMENT_THEORY":"SGP4","OBJECT_TYPE":"PAYLOAD","RCS_SIZE":"LARGE","NORAD_CAT_ID":"45048","MEAN_ANOMALY":"294.6413","ECCENTRICITY":"0.00016640","CENTER_NAME":"EARTH","PERIOD":"95.592","COUNTRY_CODE":"US","CLASSIFICATION_TYPE":"U","TIME_SYSTEM":"UTC","ELEMENT_SET_NO":"999","INCLINATION":"53.0548","ARG_OF_PERICENTER":"65.4750","SEMIMAJOR_AXIS":"6925.328","MEAN_MOTION":"15.06406548","OBJECT_NAME":"STARLINK-1134","BSTAR":"0.00013005000000","MEAN_MOTION_DDOT":"0.0000000000000"},{"GP_ID":"203869183","RA_OF_ASC_NODE":"51.1339","REV_AT_EPOCH":"12712","LAUNCH_DATE":"2020-01-29","OBJECT_ID":"2020-006F","FILE":"3451871","EPHEMERIS_TYPE":"0","REF_FRAME":"TEME","MEAN_MOTION_DOT":"0.00029856","TLE_LINE1":"1 45049U 20006F   22138.47210208  .00029856  00000-0  18712-2 0  9991","EPOCH":"2022-05-18T11:19:49.619712","SITE":"AFETR","APOAPSIS":"539.310","PERIAPSIS":"538.426","DECAY_DATE":null,"MEAN_ELEMENT_THEORY":"SGP4","TLE_LINE2":"2 45049  53.0555  51.1339 0000639  52.8472 307.2577 15.09127053127122","OBJECT_TYPE":"PAYLOAD","NORAD_CAT_ID":"45049","RCS_SIZE":"LARGE","ECCENTRICITY":"0.00006390","MEAN_ANOMALY":"307.2577","PERIOD":"95.419","CENTER_NAME":"EARTH","CLASSIFICATION_TYPE":"U","COUNTRY_CODE":"US","ELEMENT_SET_NO":"999","INCLINATION":"53.0555","ARG_OF_PERICENTER":"52.8472","TIME_SYSTEM":"UTC","MEAN_MOTION":"15.09127053","SEMIMAJOR_AXIS":"6917.003","OBJECT_NAME":"STARLINK-1135","BSTAR":"0.00187120000000","MEAN_MOTION_DDOT":"0.0000000000000"},{"LAUNCH_DATE":"2020-01-29","OBJECT_ID":"2020-006G","RA_OF_ASC_NODE":"53.0924","GP_ID":"203869934","REV_AT_EPOCH":"12673","FILE":"3451871","EPHEMERIS_TYPE":"0","REF_FRAME":"TEME","MEAN_MOTION_DOT":"0.00000472","APOAPSIS":"548.670","PERIAPSIS":"545.773","DECAY_DATE":null,"TLE_LINE1":"1 45050U 20006G   22138.23521269  .00000472  00000-0  50589-4 0  9992","EPOCH":"2022-05-18T05:38:42.376416","SITE":"AFETR","OBJECT_TYPE":"PAYLOAD","MEAN_ELEMENT_THEORY":"SGP4","TLE_LINE2":"2 45050  53.0548  53.0924 0002092  59.9958 300.1238 15.06397403126736","NORAD_CAT_ID":"45050","RCS_SIZE":"LARGE","PERIOD":"95.592","CENTER_NAME":"EARTH","CLASSIFICATION_TYPE":"U","COUNTRY_CODE":"US","ECCENTRICITY":"0.00020920","MEAN_ANOMALY":"300.1238","MEAN_MOTION":"15.06397403","SEMIMAJOR_AXIS":"6925.357","ELEMENT_SET_NO":"999","INCLINATION":"53.0548","ARG_OF_PERICENTER":"59.9958","TIME_SYSTEM":"UTC","BSTAR":"0.00005058900000","MEAN_MOTION_DDOT":"0.0000000000000","OBJECT_NAME":"STARLINK-1140"},{"TLE_LINE1":"1 45051U 20006H   22138.15974841  .00033744  00000-0  19768-2 0  9992","EPOCH":"2022-05-18T03:50:02.262624","SITE":"AFETR","APOAPSIS":"533.228","PERIAPSIS":"529.896","DECAY_DATE":null,"TLE_LINE2":"2 45051  53.0521  50.5639 0002411  89.8693 270.2575 15.11521176126762","MEAN_ELEMENT_THEORY":"SGP4","OBJECT_TYPE":"PAYLOAD","REV_AT_EPOCH":"12676","RA_OF_ASC_NODE":"50.5639","GP_ID":"203870684","LAUNCH_DATE":"2020-01-29","OBJECT_ID":"2020-006H","EPHEMERIS_TYPE":"0","FILE":"3451871","REF_FRAME":"TEME","MEAN_MOTION_DOT":"0.00033744","TIME_SYSTEM":"UTC","ELEMENT_SET_NO":"999","ARG_OF_PERICENTER":"89.8693","INCLINATION":"53.0521","SEMIMAJOR_AXIS":"6909.697","MEAN_MOTION":"15.11521176","OBJECT_NAME":"STARLINK-1141","BSTAR":"0.00197680000000","MEAN_MOTION_DDOT":"0.0000000000000","RCS_SIZE":"LARGE","NORAD_CAT_ID":"45051","MEAN_ANOMALY":"270.2575","ECCENTRICITY":"0.00024110","PERIOD":"95.268","CENTER_NAME":"EARTH","COUNTRY_CODE":"US","CLASSIFICATION_TYPE":"U"},{"CENTER_NAME":"EARTH","PERIOD":"95.592","CLASSIFICATION_TYPE":"U","COUNTRY_CODE":"US","ECCENTRICITY":"0.00018300","MEAN_ANOMALY":"297.5365","NORAD_CAT_ID":"45052","RCS_SIZE":"LARGE","BSTAR":"-0.00001923900000","MEAN_MOTION_DDOT":"0.0000000000000","OBJECT_NAME":"STARLINK-1148","MEAN_MOTION":"15.06403558","SEMIMAJOR_AXIS":"6925.338","ELEMENT_SET_NO":"999","ARG_OF_PERICENTER":"62.5810","INCLINATION":"53.0556","TIME_SYSTEM":"UTC","EPHEMERIS_TYPE":"0","FILE":"3451871","MEAN_MOTION_DOT":"-0.00000568","REF_FRAME":"TEME","LAUNCH_DATE":"2020-01-29","OBJECT_ID":"2020-006J","RA_OF_ASC_NODE":"53.3605","GP_ID":"203869433","REV_AT_EPOCH":"12672","OBJECT_TYPE":"PAYLOAD","TLE_LINE2":"2 45052  53.0556  53.3605 0001830  62.5810 297.5365 15.06403558126720","MEAN_ELEMENT_THEORY":"SGP4","APOAPSIS":"548.470","DECAY_DATE":null,"PERIAPSIS":"545.935","TLE_LINE1":"1 45052U 20006J   22138.17624384 -.00000568  00000-0 -19239-4 0  9994","EPOCH":"2022-05-18T04:13:47.467776","SITE":"AFETR"},{"LAUNCH_DATE":"2020-01-29","OBJECT_ID":"2020-006K","GP_ID":"203869683","RA_OF_ASC_NODE":"46.8113","REV_AT_EPOCH":"12678","FILE":"3451871","EPHEMERIS_TYPE":"0","MEAN_MOTION_DOT":"0.00034544","REF_FRAME":"TEME","APOAPSIS":"531.901","PERIAPSIS":"528.538","DECAY_DATE":null,"TLE_LINE1":"1 45053U 20006K   22138.16640519  .00034544  00000-0  19984-2 0  9996","EPOCH":"2022-05-18T03:59:37.408416","SITE":"AFETR","OBJECT_TYPE":"PAYLOAD","TLE_LINE2":"2 45053  53.0032  46.8113 0002434  90.2157 269.9113 15.11962017126780","MEAN_ELEMENT_THEORY":"SGP4","NORAD_CAT_ID":"45053","RCS_SIZE":"LARGE","PERIOD":"95.240","CENTER_NAME":"EARTH","CLASSIFICATION_TYPE":"U","COUNTRY_CODE":"US","ECCENTRICITY":"0.00024340","MEAN_ANOMALY":"269.9113","MEAN_MOTION":"15.11962017","SEMIMAJOR_AXIS":"6908.354","ELEMENT_SET_NO":"999","ARG_OF_PERICENTER":"90.2157","INCLINATION":"53.0032","TIME_SYSTEM":"UTC","BSTAR":"0.00199840000000","MEAN_MOTION_DDOT":"0.0000000000000","OBJECT_NAME":"STARLINK-1155"},{"REF_FRAME":"TEME","MEAN_MOTION_DOT":"0.00003347","FILE":"3452356","EPHEMERIS_TYPE":"0","GP_ID":"203903359","RA_OF_ASC_NODE":"50.7106","REV_AT_EPOCH":"12681","OBJECT_ID":"2020-006L","LAUNCH_DATE":"2020-01-29","MEAN_ELEMENT_THEORY":"SGP4","TLE_LINE2":"2 45054  53.0547  50.7106 0001521  62.8614 297.2530 15.06409311126815","OBJECT_TYPE":"PAYLOAD","SITE":"AFETR","TLE_LINE1":"1 45054U 20006L   22138.76966986  .00003347  00000-0  24344-3 0  9996","EPOCH":"2022-05-18T18:28:19.475904","PERIAPSIS":"546.132","DECAY_DATE":null,"APOAPSIS":"548.238","ECCENTRICITY":"0.00015210","MEAN_ANOMALY":"297.2530","CLASSIFICATION_TYPE":"U","COUNTRY_CODE":"US","PERIOD":"95.592","CENTER_NAME":"EARTH","NORAD_CAT_ID":"45054","RCS_SIZE":"LARGE","OBJECT_NAME":"STARLINK-1156","MEAN_MOTION_DDOT":"0.0000000000000","BSTAR":"0.00024344000000","ELEMENT_SET_NO":"999","ARG_OF_PERICENTER":"62.8614","INCLINATION":"53.0547","TIME_SYSTEM":"UTC","MEAN_MOTION":"15.06409311","SEMIMAJOR_AXIS":"6925.320"},{"MEAN_ANOMALY":"293.6400","ECCENTRICITY":"0.00017050","PERIOD":"95.592","CENTER_NAME":"EARTH","COUNTRY_CODE":"US","CLASSIFICATION_TYPE":"U","RCS_SIZE":"LARGE","NORAD_CAT_ID":"45057","OBJECT_NAME":"STARLINK-1159","BSTAR":"0.00014587000000","MEAN_MOTION_DDOT":"0.0000000000000","TIME_SYSTEM":"UTC","ARG_OF_PERICENTER":"66.4768","ELEMENT_SET_NO":"999","INCLINATION":"53.0575","SEMIMAJOR_AXIS":"6925.327","MEAN_MOTION":"15.06407181","FILE":"3452356","EPHEMERIS_TYPE":"0","REF_FRAME":"TEME","MEAN_MOTION_DOT":"0.00001892","REV_AT_EPOCH":"12683","RA_OF_ASC_NODE":"50.3266","GP_ID":"203902107","LAUNCH_DATE":"2020-01-29","OBJECT_ID":"2020-006P","MEAN_ELEMENT_THEORY":"SGP4","TLE_LINE2":"2 45057  53.0575  50.3266 0001705  66.4768 293.6400 15.06407181126837","OBJECT_TYPE":"PAYLOAD","EPOCH":"2022-05-18T20:25:05.899008","TLE_LINE1":"1 45057U 20006P   22138.85076272  .00001892  00000-0  14587-3 0  9990","SITE":"AFETR","APOAPSIS":"548.372","DECAY_DATE":null,"PERIAPSIS":"546.011"},{"MEAN_ANOMALY":"296.0361","ECCENTRICITY":"0.00016410","PERIOD":"95.592","CENTER_NAME":"EARTH","COUNTRY_CODE":"US","CLASSIFICATION_TYPE":"U","RCS_SIZE":"LARGE","NORAD_CAT_ID":"45058","OBJECT_NAME":"STARLINK-1162","BSTAR":"0.00006028300000","MEAN_MOTION_DDOT":"0.0000000000000","TIME_SYSTEM":"UTC","ELEMENT_SET_NO":"999","INCLINATION":"53.0566","ARG_OF_PERICENTER":"64.0797","SEMIMAJOR_AXIS":"6925.338","MEAN_MOTION":"15.06403332","EPHEMERIS_TYPE":"0","FILE":"3451871","REF_FRAME":"TEME","MEAN_MOTION_DOT":"0.00000617","REV_AT_EPOCH":"12673","GP_ID":"203868934","RA_OF_ASC_NODE":"53.3417","LAUNCH_DATE":"2020-01-29","OBJECT_ID":"2020-006Q","TLE_LINE2":"2 45058  53.0566  53.3417 0001641  64.0797 296.0361 15.06403332126730","MEAN_ELEMENT_THEORY":"SGP4","OBJECT_TYPE":"PAYLOAD","EPOCH":"2022-05-18T04:19:05.234016","TLE_LINE1":"1 45058U 20006Q   22138.17992169  .00000617  00000-0  60283-4 0  9997","SITE":"AFETR","APOAPSIS":"548.340","DECAY_DATE":null,"PERIAPSIS":"546.067"},{"DECAY_DATE":null,"PERIAPSIS":"546.162","APOAPSIS":"548.258","SITE":"AFETR","TLE_LINE1":"1 45059U 20006R   22138.46742615  .00000592  00000-0  58664-4 0  9991","EPOCH":"2022-05-18T11:13:05.619360","OBJECT_TYPE":"PAYLOAD","MEAN_ELEMENT_THEORY":"SGP4","TLE_LINE2":"2 45059  53.0570  52.0655 0001513  64.7791 295.3354 15.06401216126772","OBJECT_ID":"2020-006R","LAUNCH_DATE":"2020-01-29","GP_ID":"203869184","RA_OF_ASC_NODE":"52.0655","REV_AT_EPOCH":"12677","REF_FRAME":"TEME","MEAN_MOTION_DOT":"0.00000592","FILE":"3451871","EPHEMERIS_TYPE":"0","MEAN_MOTION":"15.06401216","SEMIMAJOR_AXIS":"6925.345","ELEMENT_SET_NO":"999","ARG_OF_PERICENTER":"64.7791","INCLINATION":"53.0570","TIME_SYSTEM":"UTC","MEAN_MOTION_DDOT":"0.0000000000000","BSTAR":"0.00005866400000","OBJECT_NAME":"STARLINK-1165","NORAD_CAT_ID":"45059","RCS_SIZE":"LARGE","CLASSIFICATION_TYPE":"U","COUNTRY_CODE":"US","CENTER_NAME":"EARTH","PERIOD":"95.592","ECCENTRICITY":"0.00015130","MEAN_ANOMALY":"295.3354"}];
